COMMENT,ORIGINATOR,NORAD_CAT_ID,OBJECT_NAME,OBJECT_TYPE,CLASSIFICATION_TYPE,INTLDES,EPOCH,EPOCH_MICROSECONDS,MEAN_MOTION,ECCENTRICITY,INCLINATION,RA_OF_ASC_NODE,ARG_OF_PERICENTER,MEAN_ANOMALY,EPHEMERIS_TYPE,ELEMENT_SET_NO,REV_AT_EPOCH,BSTAR,MEAN_MOTION_DOT,MEAN_MOTION_DDOT,FILE,TLE_LINE0,TLE_LINE1,TLE_LINE2,OBJECT_ID,OBJECT_NUMBER,SEMIMAJOR_AXIS,PERIOD,APOGEE,PERIGEE,DECAYED
GENERATED VIA SPACETRACK.ORG API,18 SPCS,52365,STARLINK-3874,PAYLOAD,U,22045AL,2023-07-26 07:01:24,385440,15.08846288,0.0001171,53.2173,167.0444,82.597,277.5155,0,999,7138,8.9619e-05,1.139e-05,0,3963761,0 STARLINK-3874,1 52365U 22045AL  23207.29264335  .00001139  00000-0  89619-4 0  9993,2 52365  53.2173 167.0444 0001171  82.5970 277.5155 15.08846288 71382,2022-045AL,52365,6917.861,95.437,540.536,538.916,0
GENERATED VIA SPACETRACK.ORG API,18 SPCS,52365,STARLINK-3874,PAYLOAD,U,22045AL,2023-07-27 06:52:13,327104,15.08828496,9.37e-05,53.2159,162.5852,90.2982,269.8117,0,999,7153,-6.9736e-05,-1.397e-05,0,3964562,0 STARLINK-3874,1 52365U 22045AL  23208.28626536 -.00001397  00000-0 -69736-4 0  9994,2 52365  53.2159 162.5852 0000937  90.2982 269.8117 15.08828496 71537,2022-045AL,52365,6917.916,95.438,540.429,539.132,0
GENERATED VIA SPACETRACK.ORG API,18 SPCS,52365,STARLINK-3874,PAYLOAD,U,22045AL,2023-07-27 06:52:13,327104,15.08828496,9.37e-05,53.2159,162.5852,90.2982,269.8117,0,999,7153,-6.9736e-05,-1.397e-05,0,3964647,0 STARLINK-3874,1 52365U 22045AL  23208.28626536 -.00001397  00000-0 -69736-4 0  9994,2 52365  53.2159 162.5852 0000937  90.2982 269.8117 15.08828496 71537,2022-045AL,52365,6917.916,95.438,540.429,539.132,0
GENERATED VIA SPACETRACK.ORG API,18 SPCS,52365,STARLINK-3874,PAYLOAD,U,22045AL,2023-07-27 21:10:42,34944,15.0883047,0.0001045,53.2178,159.908,119.3551,240.7545,0,999,7162,-0.00014128,-2.535e-05,0,3964919,0 STARLINK-3874,1 52365U 22045AL  23208.88243096 -.00002535  00000-0 -14128-3 0  9995,2 52365  53.2178 159.9080 0001045 119.3551 240.7545 15.08830470 71625,2022-045AL,52365,6917.91,95.438,540.497,539.052,0
GENERATED VIA SPACETRACK.ORG API,18 SPCS,52365,STARLINK-3874,PAYLOAD,U,22045AL,2023-07-28 06:43:00,379200,15.08833475,0.0001499,53.217,158.1258,131.0785,229.0337,0,999,7168,4.882e-06,-2.1e-06,0,3965489,0 STARLINK-3874,1 52365U 22045AL  23209.27986550 -.00000210  00000-0  48820-5 0  9993,2 52365  53.2170 158.1258 0001499 131.0785 229.0337 15.08833475 71681,2022-045AL,52365,6917.9,95.438,540.802,538.728,0
GENERATED VIA SPACETRACK.ORG API,18 SPCS,52365,STARLINK-3874,PAYLOAD,U,22045AL,2023-07-28 06:43:00,379200,15.08833475,0.0001499,53.217,158.1258,131.0785,229.0337,0,999,7168,4.882e-06,-2.1e-06,0,3965518,0 STARLINK-3874,1 52365U 22045AL  23209.27986550 -.00000210  00000-0  48820-5 0  9993,2 52365  53.2170 158.1258 0001499 131.0785 229.0337 15.08833475 71681,2022-045AL,52365,6917.9,95.438,540.802,538.728,0
GENERATED VIA SPACETRACK.ORG API,18 SPCS,52365,STARLINK-3874,PAYLOAD,U,22045AL,2023-07-29 03:23:00,124224,15.08844021,0.0001125,53.2167,154.2589,102.9346,257.1772,0,999,7181,0.0003047,4.565e-05,0,3966060,0 STARLINK-3874,1 52365U 22045AL  23210.14097366  .00004565  00000-0  30470-3 0  9995,2 52365  53.2167 154.2589 0001125 102.9346 257.1772 15.08844021 71816,2022-045AL,52365,6917.868,95.437,540.511,538.955,0
GENERATED VIA SPACETRACK.ORG API,18 SPCS,52365,STARLINK-3874,PAYLOAD,U,22045AL,2023-07-29 19:16:52,63104,15.08840262,0.0001053,53.2195,151.2885,93.4161,266.6951,0,999,7191,0.00022611,3.313e-05,0,3966648,0 STARLINK-3874,1 52365U 22045AL  23210.80338036  .00003313  00000-0  22611-3 0  9998,2 52365  53.2195 151.2885 0001053  93.4161 266.6951 15.08840262 71910,2022-045AL,52365,6917.88,95.438,540.473,539.016,0
GENERATED VIA SPACETRACK.ORG API,18 SPCS,52365,STARLINK-3874,PAYLOAD,U,22045AL,2023-07-30 01:38:25,65888,15.08836861,0.0001275,53.2183,150.0977,101.4282,258.6853,0,999,7195,6.6295e-05,7.67e-06,0,3966915,0 STARLINK-3874,1 52365U 22045AL  23211.06834567  .00000767  00000-0  66295-4 0  9994,2 52365  53.2183 150.0977 0001275 101.4282 258.6853 15.08836861 71952,2022-045AL,52365,6917.89,95.438,540.637,538.873,0
GENERATED VIA SPACETRACK.ORG API,18 SPCS,52365,STARLINK-3874,PAYLOAD,U,22045AL,2023-07-31 01:29:11,400864,15.08851441,0.0001214,53.2178,145.6359,92.1548,267.9583,0,999,7210,-3.9291e-05,-9.13e-06,0,3967766,0 STARLINK-3874,1 52365U 22045AL  23212.06193751 -.00000913  00000-0 -39291-4 0  9999,2 52365  53.2178 145.6359 0001214  92.1548 267.9583 15.08851441 72106,2022-045AL,52365,6917.845,95.437,540.55,538.871,0
GENERATED VIA SPACETRACK.ORG API,18 SPCS,52365,STARLINK-3874,PAYLOAD,U,22045AL,2023-07-31 06:15:20,268000,15.08856836,0.0001202,53.2172,144.7426,93.6957,266.4173,0,999,7213,5.8043e-06,-1.95e-06,0,3968347,0 STARLINK-3874,1 52365U 22045AL  23212.26065125 -.00000195  00000-0  58043-5 0  9992,2 52365  53.2172 144.7426 0001202  93.6957 266.4173 15.08856836 72137,2022-045AL,52365,6917.829,95.436,540.525,538.862,0
GENERATED VIA SPACETRACK.ORG API,18 SPCS,52365,STARLINK-3874,PAYLOAD,U,22045AL,2023-08-01 02:55:21,762624,15.08841215,0.0001174,53.2171,140.8742,93.8847,266.228,0,999,7226,2.5521e-05,1.18e-06,0,3968666,0 STARLINK-3874,1 52365U 22045AL  23213.12177966  .00000118  00000-0  25521-4 0  9993,2 52365  53.2171 140.8742 0001174  93.8847 266.2280 15.08841215 72268,2022-045AL,52365,6917.877,95.437,540.554,538.93,0
GENERATED VIA SPACETRACK.ORG API,18 SPCS,52365,STARLINK-3874,PAYLOAD,U,22045AL,2023-08-02 04:21:31,772736,15.08839694,0.0001085,53.2168,136.1179,102.8547,257.2566,0,999,7242,0.00016258,2.301e-05,0,3969735,0 STARLINK-3874,1 52365U 22045AL  23214.18161774  .00002301  00000-0  16258-3 0  9992,2 52365  53.2168 136.1179 0001085 102.8547 257.2566 15.08839694 72428,2022-045AL,52365,6917.881,95.438,540.497,538.996,0
GENERATED VIA SPACETRACK.ORG API,18 SPCS,52365,STARLINK-3874,PAYLOAD,U,22045AL,2023-08-04 00:52:20,80992,15.08840886,0.0001246,53.2169,127.7902,100.6427,259.4706,0,999,7270,9.7296e-06,-1.33e-06,0,3971161,0 STARLINK-3874,1 52365U 22045AL  23216.03634353 -.00000133  00000-0  97296-5 0  9991,2 52365  53.2169 127.7902 0001246 100.6427 259.4706 15.08840886 72707,2022-045AL,52365,6917.878,95.437,540.605,538.881,0
GENERATED VIA SPACETRACK.ORG API,18 SPCS,52365,STARLINK-3874,PAYLOAD,U,22045AL,2023-08-05 02:18:29,951136,15.08848098,0.0001349,53.2183,123.0349,83.9642,276.1504,0,999,7286,2.1466e-05,5.4e-07,0,3972005,0 STARLINK-3874,1 52365U 22045AL  23217.09617999  .00000054  00000-0  21466-4 0  9991,2 52365  53.2183 123.0349 0001349  83.9642 276.1504 15.08848098 72865,2022-045AL,52365,6917.856,95.437,540.654,538.787,0
GENERATED VIA SPACETRACK.ORG API,18 SPCS,52365,STARLINK-3874,PAYLOAD,U,22045AL,2023-08-06 03:44:39,507648,15.08857098,0.000112,53.2165,118.2774,87.5995,272.5126,0,999,7302,0.0002921,4.366e-05,0,3972907,0 STARLINK-3874,1 52365U 22045AL  23218.15601282  .00004366  00000-0  29210-3 0  9991,2 52365  53.2165 118.2774 0001120  87.5995 272.5126 15.08857098 73020,2022-045AL,52365,6917.828,95.436,540.468,538.918,0
GENERATED VIA SPACETRACK.ORG API,18 SPCS,52365,STARLINK-3874,PAYLOAD,U,22045AL,2023-08-06 10:06:13,268160,15.08831272,0.0001556,53.2162,117.0852,90.4541,269.663,0,999,7306,-6.3199e-05,-1.293e-05,0,3973228,0 STARLINK-3874,1 52365U 22045AL  23218.42098690 -.00001293  00000-0 -63199-4 0  9997,2 52365  53.2162 117.0852 0001556  90.4541 269.6630 15.08831272 73061,2022-045AL,52365,6917.907,95.438,540.848,538.696,0
GENERATED VIA SPACETRACK.ORG API,18 SPCS,52365,STARLINK-3874,PAYLOAD,U,22045AL,2023-08-07 02:00:05,400576,15.088228,0.0001124,53.2171,114.1159,104.8677,255.2439,0,999,7316,-0.00022742,-3.904e-05,0,3973827,0 STARLINK-3874,1 52365U 22045AL  23219.08339584 -.00003904  00000-0 -22742-3 0  9999,2 52365  53.2171 114.1159 0001124 104.8677 255.2439 15.08822800 73166,2022-045AL,52365,6917.933,95.439,540.576,539.02,0
GENERATED VIA SPACETRACK.ORG API,18 SPCS,52365,STARLINK-3874,PAYLOAD,U,22045AL,2023-08-07 09:57:00,982080,15.08830701,0.0001153,53.2173,112.6289,105.7672,254.3448,0,999,7321,-7.1435e-05,-1.424e-05,0,3974134,0 STARLINK-3874,1 52365U 22045AL  23219.41459470 -.00001424  00000-0 -71435-4 0  9992,2 52365  53.2173 112.6289 0001153 105.7672 254.3448 15.08830701 73217,2022-045AL,52365,6917.909,95.438,540.571,538.976,0
GENERATED VIA SPACETRACK.ORG API,18 SPCS,52365,STARLINK-3874,PAYLOAD,U,22045AL,2023-08-08 01:50:52,252224,15.08848204,0.0001037,53.216,109.6545,109.1041,251.0064,0,999,7331,0.00065752,0.00010194,0,3974724,0 STARLINK-3874,1 52365U 22045AL  23220.07699366  .00010194  00000-0  65752-3 0  9992,2 52365  53.2160 109.6545 0001037 109.1041 251.0064 15.08848204 73319,2022-045AL,52365,6917.855,95.437,540.438,539.003,0
GENERATED VIA SPACETRACK.ORG API,18 SPCS,52365,STARLINK-3874,PAYLOAD,U,22045AL,2023-08-09 09:38:34,338912,15.08846196,0.000161,53.2149,103.7059,82.6278,277.4897,0,999,7351,2.415e-05,9.6e-07,0,3975918,0 STARLINK-3874,1 52365U 22045AL  23221.40178633  .00000096  00000-0  24150-4 0  9997,2 52365  53.2149 103.7059 0001610  82.6278 277.4897 15.08846196 73511,2022-045AL,52365,6917.861,95.437,540.84,538.613,0
GENERATED VIA SPACETRACK.ORG API,18 SPCS,52365,STARLINK-3874,PAYLOAD,U,22045AL,2023-08-10 01:32:26,93760,15.08833119,0.0001261,53.2167,100.7321,86.5103,273.6033,0,999,7361,3.8864e-05,3.31e-06,0,3976542,0 STARLINK-3874,1 52365U 22045AL  23222.06419090  .00000331  00000-0  38864-4 0  9994,2 52365  53.2167 100.7321 0001261  86.5103 273.6033 15.08833119 73614,2022-045AL,52365,6917.901,95.438,540.639,538.894,0
GENERATED VIA SPACETRACK.ORG API,18 SPCS,52365,STARLINK-3874,PAYLOAD,U,22045AL,2023-08-11 01:23:12,871968,15.08852962,9.53e-05,53.2141,96.2727,78.5129,281.597,0,999,7376,0.00049482,7.599e-05,0,3977451,0 STARLINK-3874,1 52365U 22045AL  23223.05778787  .00007599  00000-0  49482-3 0  9995,2 52365  53.2141  96.2727 0000953  78.5129 281.5970 15.08852962 73762,2022-045AL,52365,6917.841,95.437,540.365,539.046,0
